{
  "norad_id": 48377,
  "name": "STARLINK-2499",
  "history": [
    {
      "epoch": "2026-03-28T21:12:17.392032Z",
      "apogee_km": 475.76072724862024,
      "perigee_km": 474.51754295771116,
      "latitude_deg": 3.809305388409929e-05,
      "longitude_deg": 114.2788741932423,
      "height_km": 476.06777445508607,
      "semi_major_axis_km": 6853.276135103165,
      "eccentricity": 9.07e-05,
      "inclination_deg": 53.1582,
      "raan_deg": 258.6489,
      "arg_perigee_deg": 92.7907,
      "mean_anomaly_deg": 267.3198,
      "mean_motion_rev_day": 15.30225432
    },
    {
      "epoch": "2026-03-28T21:12:17.392896Z",
      "apogee_km": 475.76052165033525,
      "perigee_km": 474.51774855599615,
      "latitude_deg": 4.085813634459054e-05,
      "longitude_deg": 114.27887264362467,
      "height_km": 476.0677644452991,
      "semi_major_axis_km": 6853.276135103165,
      "eccentricity": 9.067e-05,
      "inclination_deg": 53.1582,
      "raan_deg": 258.6489,
      "arg_perigee_deg": 92.7907,
      "mean_anomaly_deg": 267.3198,
      "mean_motion_rev_day": 15.30225432
    },
    {
      "epoch": "2026-03-30T20:13:51.286080Z",
      "apogee_km": 475.9297431404102,
      "perigee_km": 474.2308305749975,
      "latitude_deg": -9.418230964823421e-07,
      "longitude_deg": 117.85372879658404,
      "height_km": 475.7617229800254,
      "semi_major_axis_km": 6853.217286857704,
      "eccentricity": 0.00012395,
      "inclination_deg": 53.1593,
      "raan_deg": 249.5463,
      "arg_perigee_deg": 75.2214,
      "mean_anomaly_deg": 284.8924,
      "mean_motion_rev_day": 15.30245142
    },
    {
      "epoch": "2026-03-31T19:44:39.913152Z",
      "apogee_km": 476.1180845007939,
      "perigee_km": 474.3882888176822,
      "latitude_deg": 7.911527672874846e-06,
      "longitude_deg": 119.63395848890984,
      "height_km": 476.2183048403257,
      "semi_major_axis_km": 6853.390186659238,
      "eccentricity": 0.0001262,
      "inclination_deg": 53.1593,
      "raan_deg": 244.9948,
      "arg_perigee_deg": 94.4502,
      "mean_anomaly_deg": 265.6643,
      "mean_motion_rev_day": 15.30187234
    },
    {
      "epoch": "2026-04-01T16:07:21.645984Z",
      "apogee_km": 476.0301556987133,
      "perigee_km": 474.360683921248,
      "latitude_deg": 1.1759360216919129e-05,
      "longitude_deg": 169.17887026917592,
      "height_km": 476.16027234192364,
      "semi_major_axis_km": 6853.33241980998,
      "eccentricity": 0.0001218,
      "inclination_deg": 53.1591,
      "raan_deg": 241.0505,
      "arg_perigee_deg": 94.5899,
      "mean_anomaly_deg": 265.5241,
      "mean_motion_rev_day": 15.30206581
    },
    {
      "epoch": "2026-04-02T09:21:57.224160Z",
      "apogee_km": 476.6042170492592,
      "perigee_km": 473.8312126645342,
      "latitude_deg": -4.9941706691458595e-05,
      "longitude_deg": -93.51357114996634,
      "height_km": 475.7807665218358,
      "semi_major_axis_km": 6853.354714856897,
      "eccentricity": 0.00020231,
      "inclination_deg": 53.1588,
      "raan_deg": 237.7145,
      "arg_perigee_deg": 76.0639,
      "mean_anomaly_deg": 284.0586,
      "mean_motion_rev_day": 15.30199114
    },
    {
      "epoch": "2026-04-03T15:08:56.922432Z",
      "apogee_km": 475.9599045905434,
      "perigee_km": 474.2602993092605,
      "latitude_deg": -4.0336364467024e-05,
      "longitude_deg": 172.74993899133918,
      "height_km": 475.691531755697,
      "semi_major_axis_km": 6853.247101949902,
      "eccentricity": 0.000124,
      "inclination_deg": 53.1599,
      "raan_deg": 231.9499,
      "arg_perigee_deg": 68.1104,
      "mean_anomaly_deg": 292.0028,
      "mean_motion_rev_day": 15.30235156
    },
    {
      "epoch": "2026-04-05T12:36:30.544992Z",
      "apogee_km": 475.85369730182083,
      "perigee_km": 474.65147570055706,
      "latitude_deg": 3.281813585523565e-05,
      "longitude_deg": -159.80925116178003,
      "height_km": 476.08551935852404,
      "semi_major_axis_km": 6853.389586501188,
      "eccentricity": 8.771e-05,
      "inclination_deg": 53.1589,
      "raan_deg": 223.1477,
      "arg_perigee_deg": 83.7395,
      "mean_anomaly_deg": 276.3706,
      "mean_motion_rev_day": 15.30187435
    },
    {
      "epoch": "2026-04-06T01:08:56.121792Z",
      "apogee_km": 475.8667785743619,
      "perigee_km": 474.6052096736039,
      "latitude_deg": -2.4281168033532872e-05,
      "longitude_deg": 9.143017838319063,
      "height_km": 476.05417668366226,
      "semi_major_axis_km": 6853.372994123983,
      "eccentricity": 9.204e-05,
      "inclination_deg": 53.1595,
      "raan_deg": 220.7216,
      "arg_perigee_deg": 82.6843,
      "mean_anomaly_deg": 277.4262,
      "mean_motion_rev_day": 15.30192992
    },
    {
      "epoch": "2026-04-07T14:46:13.003392Z",
      "apogee_km": 476.0821140580574,
      "perigee_km": 474.3290290282566,
      "latitude_deg": -4.540590654022992e-05,
      "longitude_deg": 156.00080374213334,
      "height_km": 476.2385062748384,
      "semi_major_axis_km": 6853.342571543157,
      "eccentricity": 0.0001279,
      "inclination_deg": 53.1593,
      "raan_deg": 213.4448,
      "arg_perigee_deg": 98.8544,
      "mean_anomaly_deg": 261.2601,
      "mean_motion_rev_day": 15.30203181
    },
    {
      "epoch": "2026-04-08T14:17:01.700448Z",
      "apogee_km": 476.0457079188109,
      "perigee_km": 474.4617522532735,
      "latitude_deg": -8.223365459805953e-06,
      "longitude_deg": 157.7802578409849,
      "height_km": 476.1410813699055,
      "semi_major_axis_km": 6853.390730086042,
      "eccentricity": 0.00011556,
      "inclination_deg": 53.1585,
      "raan_deg": 208.8928,
      "arg_perigee_deg": 89.2248,
      "mean_anomaly_deg": 270.8885,
      "mean_motion_rev_day": 15.30187052
    }
  ]
}